{
  "type": "FeatureCollection",
  "features": [
    {
      "type": "Feature",
      "properties": {
        "norad_id": 66470,
        "name": "STARLINK-35655",
        "group": "last-30-days",
        "lat": 26.152703451058738,
        "lon": -110.7282395042571,
        "alt_km": 411.97445020553005,
        "timestamp": "2025-12-07T14:37:03.993339+00:00",
        "meta_object_name": "STARLINK-35655",
        "meta_object_id": "2025-262Q",
        "meta_epoch": "2025-12-07T00:00:02.000160",
        "meta_mean_motion": 15.50564759,
        "meta_eccentricity": 0.00016041,
        "meta_inclination": 43.0007,
        "meta_ra_of_asc_node": 104.6334,
        "meta_arg_of_pericenter": 273.5015,
        "meta_mean_anomaly": 62.4401,
        "meta_ephemeris_type": 0,
        "meta_classification_type": "U",
        "meta_norad_cat_id": 66470,
        "meta_element_set_no": 999,
        "meta_rev_at_epoch": 471,
        "meta_bstar": -0.0011252225,
        "meta_mean_motion_dot": -0.00065769,
        "meta_mean_motion_ddot": 0,
        "tle_line1": "1 66470U 25262Q   25341.00002315 -.00065769  00000+0 -11252-2 0  9993",
        "tle_line2": "2 66470  43.0007 104.6334 0001604 273.5015  62.4401 15.50564759  4710"
      },
      "geometry": {
        "type": "Point",
        "coordinates": [
          -110.7282395042571,
          26.152703451058738
        ]
      }
    },
    {
      "type": "Feature",
      "properties": {
        "norad_id": 66471,
        "name": "STARLINK-35569",
        "group": "last-30-days",
        "lat": 25.040749173637575,
        "lon": -109.02248725935982,
        "alt_km": 411.9870862410271,
        "timestamp": "2025-12-07T14:37:03.993349+00:00",
        "meta_object_name": "STARLINK-35569",
        "meta_object_id": "2025-262R",
        "meta_epoch": "2025-12-07T00:00:02.000160",
        "meta_mean_motion": 15.50640344,
        "meta_eccentricity": 0.00013907,
        "meta_inclination": 43.0007,
        "meta_ra_of_asc_node": 104.6286,
        "meta_arg_of_pericenter": 264.4787,
        "meta_mean_anomaly": 73.3066,
        "meta_ephemeris_type": 0,
        "meta_classification_type": "U",
        "meta_norad_cat_id": 66471,
        "meta_element_set_no": 999,
        "meta_rev_at_epoch": 471,
        "meta_bstar": -0.0025189639,
        "meta_mean_motion_dot": -0.00145718,
        "meta_mean_motion_ddot": 0,
        "tle_line1": "1 66471U 25262R   25341.00002315 -.00145718  00000+0 -25190-2 0  9993",
        "tle_line2": "2 66471  43.0007 104.6286 0001390 264.4787  73.3066 15.50640344  4717"
      },
      "geometry": {
        "type": "Point",
        "coordinates": [
          -109.02248725935982,
          25.040749173637575
        ]
      }
    },
    {
      "type": "Feature",
      "properties": {
        "norad_id": 66472,
        "name": "STARLINK-35567",
        "group": "last-30-days",
        "lat": 22.740117429114676,
        "lon": -105.67376704347578,
        "alt_km": 412.40273940159204,
        "timestamp": "2025-12-07T14:37:03.993361+00:00",
        "meta_object_name": "STARLINK-35567",
        "meta_object_id": "2025-262S",
        "meta_epoch": "2025-12-07T00:00:02.000160",
        "meta_mean_motion": 15.50645101,
        "meta_eccentricity": 0.00015334,
        "meta_inclination": 43.0008,
        "meta_ra_of_asc_node": 104.6185,
        "meta_arg_of_pericenter": 267.0869,
        "meta_mean_anomaly": 74.5295,
        "meta_ephemeris_type": 0,
        "meta_classification_type": "U",
        "meta_norad_cat_id": 66472,
        "meta_element_set_no": 999,
        "meta_rev_at_epoch": 471,
        "meta_bstar": -0.0026035276,
        "meta_mean_motion_dot": -0.00150534,
        "meta_mean_motion_ddot": 0,
        "tle_line1": "1 66472U 25262S   25341.00002315 -.00150534  00000+0 -26035-2 0  9995",
        "tle_line2": "2 66472  43.0008 104.6185 0001533 267.0869  74.5295 15.50645101  4719"
      },
      "geometry": {
        "type": "Point",
        "coordinates": [
          -105.67376704347578,
          22.740117429114676
        ]
      }
    },
    {
      "type": "Feature",
      "properties": {
        "norad_id": 66473,
        "name": "STARLINK-35568",
        "group": "last-30-days",
        "lat": 21.561692965664612,
        "lon": -104.03954695872234,
        "alt_km": 412.58092257780936,
        "timestamp": "2025-12-07T14:37:03.993371+00:00",
        "meta_object_name": "STARLINK-35568",
        "meta_object_id": "2025-262T",
        "meta_epoch": "2025-12-07T00:00:02.000160",
        "meta_mean_motion": 15.50636363,
        "meta_eccentricity": 0.00015748,
        "meta_inclination": 43.0008,
        "meta_ra_of_asc_node": 104.6137,
        "meta_arg_of_pericenter": 268.9654,
        "meta_mean_anomaly": 74.5713,
        "meta_ephemeris_type": 0,
        "meta_classification_type": "U",
        "meta_norad_cat_id": 66473,
        "meta_element_set_no": 999,
        "meta_rev_at_epoch": 471,
        "meta_bstar": -0.0023575269,
        "meta_mean_motion_dot": -0.00136542,
        "meta_mean_motion_ddot": 0,
        "tle_line1": "1 66473U 25262T   25341.00002315 -.00136542  00000+0 -23575-2 0  9995",
        "tle_line2": "2 66473  43.0008 104.6137 0001574 268.9654  74.5713 15.50636363  4719"
      },
      "geometry": {
        "type": "Point",
        "coordinates": [
          -104.03954695872234,
          21.561692965664612
        ]
      }
    },
    {
      "type": "Feature",
      "properties": {
        "norad_id": 66474,
        "name": "STARLINK-35620",
        "group": "last-30-days",
        "lat": 20.388422324593773,
        "lon": -102.45968678259196,
        "alt_km": 412.90307350094645,
        "timestamp": "2025-12-07T14:37:03.993382+00:00",
        "meta_object_name": "STARLINK-35620",
        "meta_object_id": "2025-262U",
        "meta_epoch": "2025-12-07T00:00:02.000160",
        "meta_mean_motion": 15.50712883,
        "meta_eccentricity": 0.00015198,
        "meta_inclination": 43.0008,
        "meta_ra_of_asc_node": 104.609,
        "meta_arg_of_pericenter": 266.6792,
        "meta_mean_anomaly": 78.7411,
        "meta_ephemeris_type": 0,
        "meta_classification_type": "U",
        "meta_norad_cat_id": 66474,
        "meta_element_set_no": 999,
        "meta_rev_at_epoch": 471,
        "meta_bstar": -0.0044533585,
        "meta_mean_motion_dot": -0.00254505,
        "meta_mean_motion_ddot": 0,
        "tle_line1": "1 66474U 25262U   25341.00002315 -.00254505  00000+0 -44534-2 0  9994",
        "tle_line2": "2 66474  43.0008 104.6090 0001519 266.6792  78.7411 15.50712883  4718"
      },
      "geometry": {
        "type": "Point",
        "coordinates": [
          -102.45968678259196,
          20.388422324593773
        ]
      }
    },
    {
      "type": "Feature",
      "properties": {
        "norad_id": 66475,
        "name": "STARLINK-35538",
        "group": "last-30-days",
        "lat": 19.166505794369986,
        "lon": -100.85899115051822,
        "alt_km": 412.9013123941986,
        "timestamp": "2025-12-07T14:37:03.993393+00:00",
        "meta_object_name": "STARLINK-35538",
        "meta_object_id": "2025-262V",
        "meta_epoch": "2025-12-07T00:00:02.000160",
        "meta_mean_motion": 15.50644524,
        "meta_eccentricity": 0.00016467,
        "meta_inclination": 43.0008,
        "meta_ra_of_asc_node": 104.6044,
        "meta_arg_of_pericenter": 266.0784,
        "meta_mean_anomaly": 81.2879,
        "meta_ephemeris_type": 0,
        "meta_classification_type": "U",
        "meta_norad_cat_id": 66475,
        "meta_element_set_no": 999,
        "meta_rev_at_epoch": 471,
        "meta_bstar": -0.0025818455,
        "meta_mean_motion_dot": -0.00149305,
        "meta_mean_motion_ddot": 0,
        "tle_line1": "1 66475U 25262V   25341.00002315 -.00149305  00000+0 -25818-2 0  9990",
        "tle_line2": "2 66475  43.0008 104.6044 0001646 266.0784  81.2879 15.50644524  4717"
      },
      "geometry": {
        "type": "Point",
        "coordinates": [
          -100.85899115051822,
          19.166505794369986
        ]
      }
    },
    {
      "type": "Feature",
      "properties": {
        "norad_id": 66476,
        "name": "STARLINK-35372",
        "group": "last-30-days",
        "lat": 17.94703541702375,
        "lon": -99.30319065049373,
        "alt_km": 413.0746650593155,
        "timestamp": "2025-12-07T14:37:03.993404+00:00",
        "meta_object_name": "STARLINK-35372",
        "meta_object_id": "2025-262W",
        "meta_epoch": "2025-12-07T00:00:02.000160",
        "meta_mean_motion": 15.50640086,
        "meta_eccentricity": 0.00017094,
        "meta_inclination": 43.0007,
        "meta_ra_of_asc_node": 104.5992,
        "meta_arg_of_pericenter": 265.8491,
        "meta_mean_anomaly": 83.4389,
        "meta_ephemeris_type": 0,
        "meta_classification_type": "U",
        "meta_norad_cat_id": 66476,
        "meta_element_set_no": 999,
        "meta_rev_at_epoch": 460,
        "meta_bstar": -0.0025174247,
        "meta_mean_motion_dot": -0.00145634,
        "meta_mean_motion_ddot": 0,
        "tle_line1": "1 66476U 25262W   25341.00002315 -.00145634  00000+0 -25174-2 0  9997",
        "tle_line2": "2 66476  43.0007 104.5992 0001709 265.8491  83.4389 15.50640086  4607"
      },
      "geometry": {
        "type": "Point",
        "coordinates": [
          -99.30319065049373,
          17.94703541702375
        ]
      }
    }
  ]
}